[
  {
    "OBJECT_NAME": "STARLINK-5415",
    "OBJECT_ID": "22175AQ",
    "EPOCH": "2025-11-11T02:58:15.147552",
    "MEAN_MOTION": 15.08833905,
    "ECCENTRICITY": 0.0001555,
    "INCLINATION": 53.2149,
    "RA_OF_ASC_NODE": 201.136,
    "ARG_OF_PERICENTER": 86.2378,
    "MEAN_ANOMALY": 273.8792,
    "EPHEMERIS_TYPE": 0,
    "CLASSIFICATION_TYPE": "U",
    "NORAD_CAT_ID": 54796,
    "ELEMENT_SET_NO": 999,
    "REV_AT_EPOCH": 16223,
    "BSTAR": 0.0,
    "MEAN_MOTION_DOT": -1.744e-05,
    "MEAN_MOTION_DDOT": 0.0,
    "TLE_LINE1": "1 54796U 22175AQ  25315.12378643 -.00001744  00000+0 -91522-4 0  9998",
    "TLE_LINE2": "2 54796  53.2149 201.1360 0001555  86.2378 273.8792 15.08833905162234",
    "COMMENT": "Grouped by shell and plane from TLE"
  },
  {
    "OBJECT_NAME": "STARLINK-5428",
    "OBJECT_ID": "22175AU",
    "EPOCH": "2025-11-11T03:05:30.244992",
    "MEAN_MOTION": 15.08835585,
    "ECCENTRICITY": 0.0001471,
    "INCLINATION": 53.2154,
    "RA_OF_ASC_NODE": 206.1315,
    "ARG_OF_PERICENTER": 93.7551,
    "MEAN_ANOMALY": 266.3609,
    "EPHEMERIS_TYPE": 0,
    "CLASSIFICATION_TYPE": "U",
    "NORAD_CAT_ID": 54800,
    "ELEMENT_SET_NO": 999,
    "REV_AT_EPOCH": 16216,
    "BSTAR": 0.0,
    "MEAN_MOTION_DOT": -4.326e-05,
    "MEAN_MOTION_DDOT": 0.0,
    "TLE_LINE1": "1 54800U 22175AU  25315.12882228 -.00004326  00000+0 -25391-3 0  9992",
    "TLE_LINE2": "2 54800  53.2154 206.1315 0001471  93.7551 266.3609 15.08835585162166",
    "COMMENT": "Grouped by shell and plane from TLE"
  },
  {
    "OBJECT_NAME": "STARLINK-5422",
    "OBJECT_ID": "22175AY",
    "EPOCH": "2025-11-11T02:26:23.582976",
    "MEAN_MOTION": 15.08868218,
    "ECCENTRICITY": 0.0001579,
    "INCLINATION": 53.2154,
    "RA_OF_ASC_NODE": 200.9997,
    "ARG_OF_PERICENTER": 94.0721,
    "MEAN_ANOMALY": 266.0452,
    "EPHEMERIS_TYPE": 0,
    "CLASSIFICATION_TYPE": "U",
    "NORAD_CAT_ID": 54804,
    "ELEMENT_SET_NO": 999,
    "REV_AT_EPOCH": 16223,
    "BSTAR": 0.0,
    "MEAN_MOTION_DOT": -2.596e-05,
    "MEAN_MOTION_DDOT": 0.0,
    "TLE_LINE1": "1 54804U 22175AY  25315.10166184 -.00002596  00000+0 -14497-3 0  9992",
    "TLE_LINE2": "2 54804  53.2154 200.9997 0001579  94.0721 266.0452 15.08868218162230",
    "COMMENT": "Grouped by shell and plane from TLE"
  },
  {
    "OBJECT_NAME": "STARLINK-5417",
    "OBJECT_ID": "22175AZ",
    "EPOCH": "2025-11-10T23:42:08.515584",
    "MEAN_MOTION": 15.08834448,
    "ECCENTRICITY": 0.0001573,
    "INCLINATION": 53.2169,
    "RA_OF_ASC_NODE": 201.7052,
    "ARG_OF_PERICENTER": 75.2482,
    "MEAN_ANOMALY": 284.8685,
    "EPHEMERIS_TYPE": 0,
    "CLASSIFICATION_TYPE": "U",
    "NORAD_CAT_ID": 54805,
    "ELEMENT_SET_NO": 999,
    "REV_AT_EPOCH": 16221,
    "BSTAR": 0.00016958,
    "MEAN_MOTION_DOT": 2.412e-05,
    "MEAN_MOTION_DDOT": 0.0,
    "TLE_LINE1": "1 54805U 22175AZ  25314.98759856  .00002412  00000+0  16958-3 0  9991",
    "TLE_LINE2": "2 54805  53.2169 201.7052 0001573  75.2482 284.8685 15.08834448162219",
    "COMMENT": "Grouped by shell and plane from TLE"
  },
  {
    "OBJECT_NAME": "STARLINK-5412",
    "OBJECT_ID": "22175BA",
    "EPOCH": "2025-11-10T23:26:14.046144",
    "MEAN_MOTION": 15.08842922,
    "ECCENTRICITY": 0.00013,
    "INCLINATION": 53.2172,
    "RA_OF_ASC_NODE": 201.6331,
    "ARG_OF_PERICENTER": 120.4346,
    "MEAN_ANOMALY": 239.6774,
    "EPHEMERIS_TYPE": 0,
    "CLASSIFICATION_TYPE": "U",
    "NORAD_CAT_ID": 54806,
    "ELEMENT_SET_NO": 999,
    "REV_AT_EPOCH": 16221,
    "BSTAR": 0.00015088,
    "MEAN_MOTION_DOT": 2.114e-05,
    "MEAN_MOTION_DDOT": 0.0,
    "TLE_LINE1": "1 54806U 22175BA  25314.97655146  .00002114  00000+0  15088-3 0  9990",
    "TLE_LINE2": "2 54806  53.2172 201.6331 0001300 120.4346 239.6774 15.08842922162216",
    "COMMENT": "Grouped by shell and plane from TLE"
  },
  {
    "OBJECT_NAME": "STARLINK-5410",
    "OBJECT_ID": "22175BB",
    "EPOCH": "2025-11-11T01:06:54.643392",
    "MEAN_MOTION": 15.08869796,
    "ECCENTRICITY": 0.0001457,
    "INCLINATION": 53.2161,
    "RA_OF_ASC_NODE": 201.3625,
    "ARG_OF_PERICENTER": 83.8416,
    "MEAN_ANOMALY": 276.2742,
    "EPHEMERIS_TYPE": 0,
    "CLASSIFICATION_TYPE": "U",
    "NORAD_CAT_ID": 54807,
    "ELEMENT_SET_NO": 999,
    "REV_AT_EPOCH": 16222,
    "BSTAR": 0.00061164,
    "MEAN_MOTION_DOT": 9.468e-05,
    "MEAN_MOTION_DDOT": 0.0,
    "TLE_LINE1": "1 54807U 22175BB  25315.04646578  .00009468  00000+0  61164-3 0  9994",
    "TLE_LINE2": "2 54807  53.2161 201.3625 0001457  83.8416 276.2742 15.08869796162222",
    "COMMENT": "Grouped by shell and plane from TLE"
  },
  {
    "OBJECT_NAME": "STARLINK-5414",
    "OBJECT_ID": "22175BD",
    "EPOCH": "2025-11-10T23:20:55.351968",
    "MEAN_MOTION": 15.08840278,
    "ECCENTRICITY": 0.0001676,
    "INCLINATION": 53.2165,
    "RA_OF_ASC_NODE": 201.6163,
    "ARG_OF_PERICENTER": 75.1772,
    "MEAN_ANOMALY": 284.9406,
    "EPHEMERIS_TYPE": 0,
    "CLASSIFICATION_TYPE": "U",
    "NORAD_CAT_ID": 54809,
    "ELEMENT_SET_NO": 999,
    "REV_AT_EPOCH": 16221,
    "BSTAR": 0.00010687000000000001,
    "MEAN_MOTION_DOT": 1.413e-05,
    "MEAN_MOTION_DDOT": 0.0,
    "TLE_LINE1": "1 54809U 22175BD  25314.97286287  .00001413  00000+0  10687-3 0  9990",
    "TLE_LINE2": "2 54809  53.2165 201.6163 0001676  75.1772 284.9406 15.08840278162216",
    "COMMENT": "Grouped by shell and plane from TLE"
  },
  {
    "OBJECT_NAME": "STARLINK-5848",
    "OBJECT_ID": "23037U",
    "EPOCH": "2025-11-11T02:17:52.416384",
    "MEAN_MOTION": 14.98325164,
    "ECCENTRICITY": 0.0002831,
    "INCLINATION": 70.0002,
    "RA_OF_ASC_NODE": 203.2821,
    "ARG_OF_PERICENTER": 271.7887,
    "MEAN_ANOMALY": 88.2948,
    "EPHEMERIS_TYPE": 0,
    "CLASSIFICATION_TYPE": "U",
    "NORAD_CAT_ID": 55932,
    "ELEMENT_SET_NO": 999,
    "REV_AT_EPOCH": 14671,
    "BSTAR": 2.0704e-05,
    "MEAN_MOTION_DOT": 1.54e-06,
    "MEAN_MOTION_DDOT": 0.0,
    "TLE_LINE1": "1 55932U 23037U   25315.09574556  .00000154  00000+0  20704-4 0  9992",
    "TLE_LINE2": "2 55932  70.0002 203.2821 0002831 271.7887  88.2948 14.98325164146718",
    "COMMENT": "Grouped by shell and plane from TLE"
  },
  {
    "OBJECT_NAME": "STARLINK-5882",
    "OBJECT_ID": "23037Y",
    "EPOCH": "2025-11-11T02:23:51.993312",
    "MEAN_MOTION": 14.98338342,
    "ECCENTRICITY": 0.0003257,
    "INCLINATION": 69.9994,
    "RA_OF_ASC_NODE": 203.2971,
    "ARG_OF_PERICENTER": 271.4997,
    "MEAN_ANOMALY": 88.5789,
    "EPHEMERIS_TYPE": 0,
    "CLASSIFICATION_TYPE": "U",
    "NORAD_CAT_ID": 55936,
    "ELEMENT_SET_NO": 999,
    "REV_AT_EPOCH": 14671,
    "BSTAR": 0.00020627000000000002,
    "MEAN_MOTION_DOT": 2.37e-05,
    "MEAN_MOTION_DDOT": 0.0,
    "TLE_LINE1": "1 55936U 23037Y   25315.09990733  .00002370  00000+0  20627-3 0  9990",
    "TLE_LINE2": "2 55936  69.9994 203.2971 0003257 271.4997  88.5789 14.98338342146715",
    "COMMENT": "Grouped by shell and plane from TLE"
  },
  {
    "OBJECT_NAME": "STARLINK-5900",
    "OBJECT_ID": "23037AL",
    "EPOCH": "2025-11-11T01:53:50.841888",
    "MEAN_MOTION": 14.98336257,
    "ECCENTRICITY": 0.0002898,
    "INCLINATION": 69.9993,
    "RA_OF_ASC_NODE": 203.6277,
    "ARG_OF_PERICENTER": 271.0975,
    "MEAN_ANOMALY": 88.9852,
    "EPHEMERIS_TYPE": 0,
    "CLASSIFICATION_TYPE": "U",
    "NORAD_CAT_ID": 55948,
    "ELEMENT_SET_NO": 999,
    "REV_AT_EPOCH": 14670,
    "BSTAR": 0.000126,
    "MEAN_MOTION_DOT": 1.411e-05,
    "MEAN_MOTION_DDOT": 0.0,
    "TLE_LINE1": "1 55948U 23037AL  25315.07906067  .00001411  00000+0  12600-3 0  9995",
    "TLE_LINE2": "2 55948  69.9993 203.6277 0002898 271.0975  88.9852 14.98336257146709",
    "COMMENT": "Grouped by shell and plane from TLE"
  },
  {
    "OBJECT_NAME": "STARLINK-5899",
    "OBJECT_ID": "23037AM",
    "EPOCH": "2025-11-11T02:05:52.684512",
    "MEAN_MOTION": 14.98332167,
    "ECCENTRICITY": 0.0002756,
    "INCLINATION": 69.9995,
    "RA_OF_ASC_NODE": 203.657,
    "ARG_OF_PERICENTER": 270.6741,
    "MEAN_ANOMALY": 89.4102,
    "EPHEMERIS_TYPE": 0,
    "CLASSIFICATION_TYPE": "U",
    "NORAD_CAT_ID": 55949,
    "ELEMENT_SET_NO": 999,
    "REV_AT_EPOCH": 14670,
    "BSTAR": 7.7483e-05,
    "MEAN_MOTION_DOT": 8.32e-06,
    "MEAN_MOTION_DDOT": 0.0,
    "TLE_LINE1": "1 55949U 23037AM  25315.08741533  .00000832  00000+0  77483-4 0  9999",
    "TLE_LINE2": "2 55949  69.9995 203.6570 0002756 270.6741  89.4102 14.98332167146707",
    "COMMENT": "Grouped by shell and plane from TLE"
  },
  {
    "OBJECT_NAME": "STARLINK-5911",
    "OBJECT_ID": "23037AN",
    "EPOCH": "2025-11-11T01:47:50.570304",
    "MEAN_MOTION": 14.98334914,
    "ECCENTRICITY": 0.0002881,
    "INCLINATION": 70.0,
    "RA_OF_ASC_NODE": 203.6117,
    "ARG_OF_PERICENTER": 276.7889,
    "MEAN_ANOMALY": 83.2942,
    "EPHEMERIS_TYPE": 0,
    "CLASSIFICATION_TYPE": "U",
    "NORAD_CAT_ID": 55950,
    "ELEMENT_SET_NO": 999,
    "REV_AT_EPOCH": 14670,
    "BSTAR": 9.668200000000001e-05,
    "MEAN_MOTION_DOT": 1.061e-05,
    "MEAN_MOTION_DDOT": 0.0,
    "TLE_LINE1": "1 55950U 23037AN  25315.07489086  .00001061  00000+0  96682-4 0  9999",
    "TLE_LINE2": "2 55950  70.0000 203.6117 0002881 276.7889  83.2942 14.98334914146701",
    "COMMENT": "Grouped by shell and plane from TLE"
  },
  {
    "OBJECT_NAME": "STARLINK-5893",
    "OBJECT_ID": "23037AQ",
    "EPOCH": "2025-11-11T01:54:05.400288",
    "MEAN_MOTION": 14.98336129,
    "ECCENTRICITY": 0.000294,
    "INCLINATION": 69.9995,
    "RA_OF_ASC_NODE": 203.6289,
    "ARG_OF_PERICENTER": 271.4007,
    "MEAN_ANOMALY": 88.6815,
    "EPHEMERIS_TYPE": 0,
    "CLASSIFICATION_TYPE": "U",
    "NORAD_CAT_ID": 55952,
    "ELEMENT_SET_NO": 999,
    "REV_AT_EPOCH": 14670,
    "BSTAR": 7.4058e-05,
    "MEAN_MOTION_DOT": 7.91e-06,
    "MEAN_MOTION_DDOT": 0.0,
    "TLE_LINE1": "1 55952U 23037AQ  25315.07922917  .00000791  00000+0  74058-4 0  9998",
    "TLE_LINE2": "2 55952  69.9995 203.6289 0002940 271.4007  88.6815 14.98336129146701",
    "COMMENT": "Grouped by shell and plane from TLE"
  }
]